[{"OBJECT_NAME":"ONEWEB-0645","OBJECT_ID":"2023-029P","EPOCH":"2026-03-09T17:16:31.500192","MEAN_MOTION":13.1972543,"ECCENTRICITY":0.00016884,"INCLINATION":87.9228,"RA_OF_ASC_NODE":324.7967,"ARG_OF_PERICENTER":97.8792,"MEAN_ANOMALY":262.2532,"EPHEMERIS_TYPE":0,"CLASSIFICATION_TYPE":"U","NORAD_CAT_ID":55809,"ELEMENT_SET_NO":999,"REV_AT_EPOCH":14578,"BSTAR":1.1441113e-5,"MEAN_MOTION_DOT":1.8e-7,"MEAN_MOTION_DDOT":0},{"OBJECT_NAME":"COSMOS 409","OBJECT_ID":"1971-038A","EPOCH":"2026-03-09T17:20:52.429056","MEAN_MOTION":13.17842311,"ECCENTRICITY":0.00220215,"INCLINATION":74.003,"RA_OF_ASC_NODE":163.2842,"ARG_OF_PERICENTER":70.8976,"MEAN_ANOMALY":43.1242,"EPHEMERIS_TYPE":0,"CLASSIFICATION_TYPE":"U","NORAD_CAT_ID":5180,"ELEMENT_SET_NO":999,"REV_AT_EPOCH":63914,"BSTAR":0.00038470119,"MEAN_MOTION_DOT":1.31e-6,"MEAN_MOTION_DDOT":0}]
